{
  "type": "FeatureCollection",
  "features": [
    {
      "type": "Feature",
      "properties": {
        "norad_id": 35455,
        "name": "COSMOS 2251 DEB",
        "group": "cosmos-2251-debris",
        "lat": 17.952885417129693,
        "lon": -56.99716398054299,
        "alt_km": 662.7626674262619,
        "timestamp": "2025-12-11T05:00:26.704529+00:00",
        "meta_object_name": "COSMOS 2251 DEB",
        "meta_object_id": "1993-036AKZ",
        "meta_epoch": "2025-12-10T07:23:15.145152",
        "meta_mean_motion": 14.49356293,
        "meta_eccentricity": 0.0098984,
        "meta_inclination": 74.0286,
        "meta_ra_of_asc_node": 299.3687,
        "meta_arg_of_pericenter": 43.4933,
        "meta_mean_anomaly": 317.3978,
        "meta_ephemeris_type": 0,
        "meta_classification_type": "U",
        "meta_norad_cat_id": 35455,
        "meta_element_set_no": 999,
        "meta_rev_at_epoch": 86508,
        "meta_bstar": 0.0024937,
        "meta_mean_motion_dot": 0.00010129,
        "meta_mean_motion_ddot": 0,
        "tle_line1": "1 35455U 93036AKZ 25344.30781418  .00010129  00000+0  24937-2 0  9992",
        "tle_line2": "2 35455  74.0286 299.3687 0098984  43.4933 317.3978 14.49356293865080"
      },
      "geometry": {
        "type": "Point",
        "coordinates": [
          -56.99716398054299,
          17.952885417129693
        ]
      }
    },
    {
      "type": "Feature",
      "properties": {
        "norad_id": 35456,
        "name": "COSMOS 2251 DEB",
        "group": "cosmos-2251-debris",
        "lat": -73.93266602144364,
        "lon": 28.674906704664313,
        "alt_km": 647.4674858710414,
        "timestamp": "2025-12-11T05:00:26.704539+00:00",
        "meta_object_name": "COSMOS 2251 DEB",
        "meta_object_id": "1993-036ALA",
        "meta_epoch": "2025-12-07T16:26:35.520576",
        "meta_mean_motion": 14.69275987,
        "meta_eccentricity": 0.0065481,
        "meta_inclination": 73.9502,
        "meta_ra_of_asc_node": 127.3161,
        "meta_arg_of_pericenter": 338.308,
        "meta_mean_anomaly": 21.5318,
        "meta_ephemeris_type": 0,
        "meta_classification_type": "U",
        "meta_norad_cat_id": 35456,
        "meta_element_set_no": 999,
        "meta_rev_at_epoch": 65801,
        "meta_bstar": 0.0028319025,
        "meta_mean_motion_dot": 0.00017275,
        "meta_mean_motion_ddot": 0,
        "tle_line1": "1 35456U 93036ALA 25341.68513334  .00017275  00000+0  28319-2 0  9998",
        "tle_line2": "2 35456  73.9502 127.3161 0065481 338.3080  21.5318 14.69275987658019"
      },
      "geometry": {
        "type": "Point",
        "coordinates": [
          28.674906704664313,
          -73.93266602144364
        ]
      }
    },
    {
      "type": "Feature",
      "properties": {
        "norad_id": 35459,
        "name": "COSMOS 2251 DEB",
        "group": "cosmos-2251-debris",
        "lat": 66.09988210871303,
        "lon": -30.64211719387343,
        "alt_km": 750.0576237958085,
        "timestamp": "2025-12-11T05:00:26.704549+00:00",
        "meta_object_name": "COSMOS 2251 DEB",
        "meta_object_id": "1993-036ALD",
        "meta_epoch": "2025-12-10T20:09:22.902624",
        "meta_mean_motion": 14.37457314,
        "meta_eccentricity": 0.00163485,
        "meta_inclination": 73.8697,
        "meta_ra_of_asc_node": 190.8154,
        "meta_arg_of_pericenter": 139.3588,
        "meta_mean_anomaly": 220.8788,
        "meta_ephemeris_type": 0,
        "meta_classification_type": "U",
        "meta_norad_cat_id": 35459,
        "meta_element_set_no": 999,
        "meta_rev_at_epoch": 58334,
        "meta_bstar": 0.00035409839,
        "meta_mean_motion_dot": 1.034e-05,
        "meta_mean_motion_ddot": 0,
        "tle_line1": "1 35459U 93036ALD 25344.83984841  .00001034  00000+0  35410-3 0  9993",
        "tle_line2": "2 35459  73.8697 190.8154 0016348 139.3588 220.8788 14.37457314583342"
      },
      "geometry": {
        "type": "Point",
        "coordinates": [
          -30.64211719387343,
          66.09988210871303
        ]
      }
    },
    {
      "type": "Feature",
      "properties": {
        "norad_id": 35462,
        "name": "COSMOS 2251 DEB",
        "group": "cosmos-2251-debris",
        "lat": -34.53811544383135,
        "lon": 102.82751116730962,
        "alt_km": 800.4142883081295,
        "timestamp": "2025-12-11T05:00:26.704559+00:00",
        "meta_object_name": "COSMOS 2251 DEB",
        "meta_object_id": "1993-036ALG",
        "meta_epoch": "2025-12-10T12:52:22.582272",
        "meta_mean_motion": 14.29266273,
        "meta_eccentricity": 0.0086888,
        "meta_inclination": 74.0366,
        "meta_ra_of_asc_node": 272.6859,
        "meta_arg_of_pericenter": 308.289,
        "meta_mean_anomaly": 51.0466,
        "meta_ephemeris_type": 0,
        "meta_classification_type": "U",
        "meta_norad_cat_id": 35462,
        "meta_element_set_no": 999,
        "meta_rev_at_epoch": 66349,
        "meta_bstar": 0.0027293,
        "meta_mean_motion_dot": 7.21e-05,
        "meta_mean_motion_ddot": 0,
        "tle_line1": "1 35462U 93036ALG 25344.53637248  .00007210  00000+0  27293-2 0  9991",
        "tle_line2": "2 35462  74.0366 272.6859 0086888 308.2890  51.0466 14.29266273663497"
      },
      "geometry": {
        "type": "Point",
        "coordinates": [
          102.82751116730962,
          -34.53811544383135
        ]
      }
    },
    {
      "type": "Feature",
      "properties": {
        "norad_id": 35465,
        "name": "COSMOS 2251 DEB",
        "group": "cosmos-2251-debris",
        "lat": -12.736973839358772,
        "lon": 23.6021180625689,
        "alt_km": 792.6936720746207,
        "timestamp": "2025-12-11T05:00:26.704568+00:00",
        "meta_object_name": "COSMOS 2251 DEB",
        "meta_object_id": "1993-036ALK",
        "meta_epoch": "2025-12-09T07:13:54.181920",
        "meta_mean_motion": 14.44306043,
        "meta_eccentricity": 0.0063804,
        "meta_inclination": 73.9983,
        "meta_ra_of_asc_node": 203.4389,
        "meta_arg_of_pericenter": 4.3071,
        "meta_mean_anomaly": 355.8621,
        "meta_ephemeris_type": 0,
        "meta_classification_type": "U",
        "meta_norad_cat_id": 35465,
        "meta_element_set_no": 999,
        "meta_rev_at_epoch": 87192,
        "meta_bstar": 0.00063465,
        "meta_mean_motion_dot": 2.21e-05,
        "meta_mean_motion_ddot": 0,
        "tle_line1": "1 35465U 93036ALK 25343.30132155  .00002210  00000+0  63465-3 0  9992",
        "tle_line2": "2 35465  73.9983 203.4389 0063804   4.3071 355.8621 14.44306043871925"
      },
      "geometry": {
        "type": "Point",
        "coordinates": [
          23.6021180625689,
          -12.736973839358772
        ]
      }
    },
    {
      "type": "Feature",
      "properties": {
        "norad_id": 35469,
        "name": "COSMOS 2251 DEB",
        "group": "cosmos-2251-debris",
        "lat": -0.8298200945060052,
        "lon": 26.51124995968345,
        "alt_km": 783.6416858756675,
        "timestamp": "2025-12-11T05:00:26.704579+00:00",
        "meta_object_name": "COSMOS 2251 DEB",
        "meta_object_id": "1993-036ALP",
        "meta_epoch": "2025-12-10T09:08:19.185504",
        "meta_mean_motion": 14.49816344,
        "meta_eccentricity": 0.00770564,
        "meta_inclination": 74.0175,
        "meta_ra_of_asc_node": 28.3045,
        "meta_arg_of_pericenter": 184.2675,
        "meta_mean_anomaly": 175.7838,
        "meta_ephemeris_type": 0,
        "meta_classification_type": "U",
        "meta_norad_cat_id": 35469,
        "meta_element_set_no": 999,
        "meta_rev_at_epoch": 88077,
        "meta_bstar": 0.00017261696,
        "meta_mean_motion_dot": 6.62e-06,
        "meta_mean_motion_ddot": 0,
        "tle_line1": "1 35469U 93036ALP 25344.38077761  .00000662  00000+0  17262-3 0  9999",
        "tle_line2": "2 35469  74.0175  28.3045 0077056 184.2675 175.7838 14.49816344880776"
      },
      "geometry": {
        "type": "Point",
        "coordinates": [
          26.51124995968345,
          -0.8298200945060052
        ]
      }
    },
    {
      "type": "Feature",
      "properties": {
        "norad_id": 35475,
        "name": "COSMOS 2251 DEB",
        "group": "cosmos-2251-debris",
        "lat": 69.65563946857799,
        "lon": -62.005980098901226,
        "alt_km": 665.9983619915347,
        "timestamp": "2025-12-11T05:00:26.704589+00:00",
        "meta_object_name": "COSMOS 2251 DEB",
        "meta_object_id": "1993-036ALV",
        "meta_epoch": "2025-12-10T18:44:16.440576",
        "meta_mean_motion": 14.69658718,
        "meta_eccentricity": 0.00207805,
        "meta_inclination": 74.0218,
        "meta_ra_of_asc_node": 169.4239,
        "meta_arg_of_pericenter": 242.4594,
        "meta_mean_anomaly": 117.4466,
        "meta_ephemeris_type": 0,
        "meta_classification_type": "U",
        "meta_norad_cat_id": 35475,
        "meta_element_set_no": 999,
        "meta_rev_at_epoch": 65588,
        "meta_bstar": 0.0028617885,
        "meta_mean_motion_dot": 0.00017099,
        "meta_mean_motion_ddot": 0,
        "tle_line1": "1 35475U 93036ALV 25344.78074584  .00017099  00000+0  28618-2 0  9998",
        "tle_line2": "2 35475  74.0218 169.4239 0020780 242.4594 117.4466 14.69658718655885"
      },
      "geometry": {
        "type": "Point",
        "coordinates": [
          -62.005980098901226,
          69.65563946857799
        ]
      }
    }
  ]
}